ONEWEB-0502             
1 54120U 22138H   26036.23072766  .00000038  00000+0  63316-4 0  9991
2 54120  87.9256 331.2137 0001535  72.5602 287.5698 13.19727337159426
ONEWEB-0503             
1 54121U 22138J   26035.84058600  .00000122  00000+0  27241-3 0  9999
2 54121  87.9256 331.2945 0001880  71.0274 289.1062 13.19727733159362
ONEWEB-0504             
1 54122U 22138K   26036.28286345  .00000013  00000+0 -98301-6 0  9996
2 54122  87.9250 331.2196 0001565  73.0239 287.1065 13.19727035159432
ONEWEB-0505             
1 54123U 22138L   26036.20387795 -.00000030  00000+0 -10778-3 0  9999
2 54123  87.9263 331.2282 0001289  69.6778 290.4493 13.19727651159408
ONEWEB-0506             
1 54124U 22138M   26036.25443153 -.00000824  00000+0 -20909-2 0  9993
2 54124  87.9258 331.2163 0001530  76.4106 283.7197 13.19718067159408
ONEWEB-0507             
1 54125U 22138N   26036.04750040  .00000063  00000+0  12390-3 0  9996
2 54125  87.9243 331.2833 0001571  79.5230 280.6080 13.19724132159423
ONEWEB-0508             
1 54126U 22138P   26036.27181257 -.00000027  00000+0 -10080-3 0  9996
2 54126  87.9252 331.2360 0001296  83.1919 276.9362 13.19725818159432
ONEWEB-0509             
1 54127U 22138Q   26036.09488678  .00000032  00000+0  47467-4 0  9998
2 54127  87.9259 331.2476 0001635  78.1382 281.9934 13.19724215159388
ONEWEB-0510             
1 54128U 22138R   26035.70861795  .00000025  00000+0  30756-4 0  9996
2 54128  87.9220 300.8744 0002180  79.1602 280.9777 13.20772143161796
ONEWEB-0511             
1 54129U 22138S   26036.24335698 -.00000277  00000+0 -72476-3 0  9990
2 54129  87.9263 331.2222 0001854  70.4551 289.6782 13.19725721159435
ONEWEB-0512             
1 54130U 22138T   26036.23548260 -.00000210  00000+0 -55595-3 0  9992
2 54130  87.9245 331.2415 0001449  70.6237 289.5053 13.19725995159404
ONEWEB-0513             
1 54131U 22138U   26036.21915003  .00000058  00000+0  11082-3 0  9995
2 54131  87.9265 331.2018 0001322  50.2901 309.8349 13.20259756159300
ONEWEB-0514             
1 54132U 22138V   26036.25126035  .00000028  00000+0  37050-4 0  9990
2 54132  87.9252 331.2266 0001887  78.2901 281.8443 13.19724240159428
ONEWEB-0515             
1 54133U 22138W   26036.15052666  .00000093  00000+0  19705-3 0  9996
2 54133  87.9224 300.7748 0002275  97.6937 262.4455 13.20770136161877
ONEWEB-0516             
1 54134U 22138X   26036.22599037  .00000105  00000+0  22912-3 0  9991
2 54134  87.9249 331.2441 0001691  80.2856 279.8468 13.19727962159424
ONEWEB-0517             
1 54135U 22138Y   26036.20545322 -.00000001  00000+0 -35252-4 0  9997
2 54135  87.9250 331.2362 0001901  70.5325 289.6013 13.19723887159423
ONEWEB-0518             
1 54136U 22138Z   26036.22440898  .00000088  00000+0  18741-3 0  9998
2 54136  87.9246 331.2464 0001560  79.1766 280.9542 13.19724968159429
