[{"OBJECT_NAME":"ONEWEB-0502","OBJECT_ID":"2022-138H","EPOCH":"2026-02-05T05:32:14.869824","MEAN_MOTION":13.19727337,"ECCENTRICITY":0.00015354,"INCLINATION":87.9256,"RA_OF_ASC_NODE":331.2137,"ARG_OF_PERICENTER":72.5602,"MEAN_ANOMALY":287.5698,"EPHEMERIS_TYPE":0,"CLASSIFICATION_TYPE":"U","NORAD_CAT_ID":54120,"ELEMENT_SET_NO":999,"REV_AT_EPOCH":15942,"BSTAR":6.3315582e-5,"MEAN_MOTION_DOT":3.8e-7,"MEAN_MOTION_DDOT":0},{"OBJECT_NAME":"ONEWEB-0503","OBJECT_ID":"2022-138J","EPOCH":"2026-02-04T20:10:26.630400","MEAN_MOTION":13.19727733,"ECCENTRICITY":0.00018805,"INCLINATION":87.9256,"RA_OF_ASC_NODE":331.2945,"ARG_OF_PERICENTER":71.0274,"MEAN_ANOMALY":289.1062,"EPHEMERIS_TYPE":0,"CLASSIFICATION_TYPE":"U","NORAD_CAT_ID":54121,"ELEMENT_SET_NO":999,"REV_AT_EPOCH":15936,"BSTAR":0.00027241261,"MEAN_MOTION_DOT":1.22e-6,"MEAN_MOTION_DDOT":0},{"OBJECT_NAME":"ONEWEB-0504","OBJECT_ID":"2022-138K","EPOCH":"2026-02-05T06:47:19.402080","MEAN_MOTION":13.19727035,"ECCENTRICITY":0.00015654,"INCLINATION":87.925,"RA_OF_ASC_NODE":331.2196,"ARG_OF_PERICENTER":73.0239,"MEAN_ANOMALY":287.1065,"EPHEMERIS_TYPE":0,"CLASSIFICATION_TYPE":"U","NORAD_CAT_ID":54122,"ELEMENT_SET_NO":999,"REV_AT_EPOCH":15943,"BSTAR":-9.83007e-7,"MEAN_MOTION_DOT":1.3e-7,"MEAN_MOTION_DDOT":0},{"OBJECT_NAME":"ONEWEB-0505","OBJECT_ID":"2022-138L","EPOCH":"2026-02-05T04:53:35.054880","MEAN_MOTION":13.19727651,"ECCENTRICITY":0.00012899,"INCLINATION":87.9263,"RA_OF_ASC_NODE":331.2282,"ARG_OF_PERICENTER":69.6778,"MEAN_ANOMALY":290.4493,"EPHEMERIS_TYPE":0,"CLASSIFICATION_TYPE":"U","NORAD_CAT_ID":54123,"ELEMENT_SET_NO":999,"REV_AT_EPOCH":15940,"BSTAR":-0.00010778109,"MEAN_MOTION_DOT":-3.0e-7,"MEAN_MOTION_DDOT":0},{"OBJECT_NAME":"ONEWEB-0506","OBJECT_ID":"2022-138M","EPOCH":"2026-02-05T06:06:22.884192","MEAN_MOTION":13.19718067,"ECCENTRICITY":0.00015306,"INCLINATION":87.9258,"RA_OF_ASC_NODE":331.2163,"ARG_OF_PERICENTER":76.4106,"MEAN_ANOMALY":283.7197,"EPHEMERIS_TYPE":0,"CLASSIFICATION_TYPE":"U","NORAD_CAT_ID":54124,"ELEMENT_SET_NO":999,"REV_AT_EPOCH":15940,"BSTAR":-0.0020908715,"MEAN_MOTION_DOT":-8.24e-6,"MEAN_MOTION_DDOT":0},{"OBJECT_NAME":"ONEWEB-0507","OBJECT_ID":"2022-138N","EPOCH":"2026-02-05T01:08:24.034560","MEAN_MOTION":13.19724132,"ECCENTRICITY":0.00015713,"INCLINATION":87.9243,"RA_OF_ASC_NODE":331.2833,"ARG_OF_PERICENTER":79.523,"MEAN_ANOMALY":280.608,"EPHEMERIS_TYPE":0,"CLASSIFICATION_TYPE":"U","NORAD_CAT_ID":54125,"ELEMENT_SET_NO":999,"REV_AT_EPOCH":15942,"BSTAR":0.0001238952,"MEAN_MOTION_DOT":6.3e-7,"MEAN_MOTION_DDOT":0},{"OBJECT_NAME":"ONEWEB-0508","OBJECT_ID":"2022-138P","EPOCH":"2026-02-05T06:31:24.606048","MEAN_MOTION":13.19725818,"ECCENTRICITY":0.00012965,"INCLINATION":87.9252,"RA_OF_ASC_NODE":331.236,"ARG_OF_PERICENTER":83.1919,"MEAN_ANOMALY":276.9362,"EPHEMERIS_TYPE":0,"CLASSIFICATION_TYPE":"U","NORAD_CAT_ID":54126,"ELEMENT_SET_NO":999,"REV_AT_EPOCH":15943,"BSTAR":-0.00010080054,"MEAN_MOTION_DOT":-2.7e-7,"MEAN_MOTION_DDOT":0},{"OBJECT_NAME":"ONEWEB-0509","OBJECT_ID":"2022-138Q","EPOCH":"2026-02-05T02:16:38.217792","MEAN_MOTION":13.19724215,"ECCENTRICITY":0.00016355,"INCLINATION":87.9259,"RA_OF_ASC_NODE":331.2476,"ARG_OF_PERICENTER":78.1382,"MEAN_ANOMALY":281.9934,"EPHEMERIS_TYPE":0,"CLASSIFICATION_TYPE":"U","NORAD_CAT_ID":54127,"ELEMENT_SET_NO":999,"REV_AT_EPOCH":15938,"BSTAR":4.7466532e-5,"MEAN_MOTION_DOT":3.2e-7,"MEAN_MOTION_DDOT":0},{"OBJECT_NAME":"ONEWEB-0510","OBJECT_ID":"2022-138R","EPOCH":"2026-02-04T17:00:24.590880","MEAN_MOTION":13.20772143,"ECCENTRICITY":0.00021802,"INCLINATION":87.922,"RA_OF_ASC_NODE":300.8744,"ARG_OF_PERICENTER":79.1602,"MEAN_ANOMALY":280.9777,"EPHEMERIS_TYPE":0,"CLASSIFICATION_TYPE":"U","NORAD_CAT_ID":54128,"ELEMENT_SET_NO":999,"REV_AT_EPOCH":16179,"BSTAR":3.0755872e-5,"MEAN_MOTION_DOT":2.5e-7,"MEAN_MOTION_DDOT":0},{"OBJECT_NAME":"ONEWEB-0511","OBJECT_ID":"2022-138S","EPOCH":"2026-02-05T05:50:26.043072","MEAN_MOTION":13.19725721,"ECCENTRICITY":0.00018543,"INCLINATION":87.9263,"RA_OF_ASC_NODE":331.2222,"ARG_OF_PERICENTER":70.4551,"MEAN_ANOMALY":289.6782,"EPHEMERIS_TYPE":0,"CLASSIFICATION_TYPE":"U","NORAD_CAT_ID":54129,"ELEMENT_SET_NO":999,"REV_AT_EPOCH":15943,"BSTAR":-0.00072476491,"MEAN_MOTION_DOT":-2.77e-6,"MEAN_MOTION_DDOT":0},{"OBJECT_NAME":"ONEWEB-0512","OBJECT_ID":"2022-138T","EPOCH":"2026-02-05T05:39:05.696640","MEAN_MOTION":13.19725995,"ECCENTRICITY":0.0001449,"INCLINATION":87.9245,"RA_OF_ASC_NODE":331.2415,"ARG_OF_PERICENTER":70.6237,"MEAN_ANOMALY":289.5053,"EPHEMERIS_TYPE":0,"CLASSIFICATION_TYPE":"U","NORAD_CAT_ID":54130,"ELEMENT_SET_NO":999,"REV_AT_EPOCH":15940,"BSTAR":-0.00055594957,"MEAN_MOTION_DOT":-2.1e-6,"MEAN_MOTION_DDOT":0},{"OBJECT_NAME":"ONEWEB-0513","OBJECT_ID":"2022-138U","EPOCH":"2026-02-05T05:15:34.562592","MEAN_MOTION":13.20259756,"ECCENTRICITY":0.00013227,"INCLINATION":87.9265,"RA_OF_ASC_NODE":331.2018,"ARG_OF_PERICENTER":50.2901,"MEAN_ANOMALY":309.8349,"EPHEMERIS_TYPE":0,"CLASSIFICATION_TYPE":"U","NORAD_CAT_ID":54131,"ELEMENT_SET_NO":999,"REV_AT_EPOCH":15930,"BSTAR":0.00011081743,"MEAN_MOTION_DOT":5.8e-7,"MEAN_MOTION_DDOT":0},{"OBJECT_NAME":"ONEWEB-0514","OBJECT_ID":"2022-138V","EPOCH":"2026-02-05T06:01:48.894240","MEAN_MOTION":13.1972424,"ECCENTRICITY":0.00018875,"INCLINATION":87.9252,"RA_OF_ASC_NODE":331.2266,"ARG_OF_PERICENTER":78.2901,"MEAN_ANOMALY":281.8443,"EPHEMERIS_TYPE":0,"CLASSIFICATION_TYPE":"U","NORAD_CAT_ID":54132,"ELEMENT_SET_NO":999,"REV_AT_EPOCH":15942,"BSTAR":3.7050027e-5,"MEAN_MOTION_DOT":2.8e-7,"MEAN_MOTION_DDOT":0},{"OBJECT_NAME":"ONEWEB-0515","OBJECT_ID":"2022-138W","EPOCH":"2026-02-05T03:36:45.503424","MEAN_MOTION":13.20770136,"ECCENTRICITY":0.00022759,"INCLINATION":87.9224,"RA_OF_ASC_NODE":300.7748,"ARG_OF_PERICENTER":97.6937,"MEAN_ANOMALY":262.4455,"EPHEMERIS_TYPE":0,"CLASSIFICATION_TYPE":"U","NORAD_CAT_ID":54133,"ELEMENT_SET_NO":999,"REV_AT_EPOCH":16187,"BSTAR":0.00019705176,"MEAN_MOTION_DOT":9.3e-7,"MEAN_MOTION_DDOT":0},{"OBJECT_NAME":"ONEWEB-0516","OBJECT_ID":"2022-138X","EPOCH":"2026-02-05T05:25:25.567968","MEAN_MOTION":13.19727962,"ECCENTRICITY":0.00016912,"INCLINATION":87.9249,"RA_OF_ASC_NODE":331.2441,"ARG_OF_PERICENTER":80.2856,"MEAN_ANOMALY":279.8468,"EPHEMERIS_TYPE":0,"CLASSIFICATION_TYPE":"U","NORAD_CAT_ID":54134,"ELEMENT_SET_NO":999,"REV_AT_EPOCH":15942,"BSTAR":0.00022912061,"MEAN_MOTION_DOT":1.05e-6,"MEAN_MOTION_DDOT":0},{"OBJECT_NAME":"ONEWEB-0517","OBJECT_ID":"2022-138Y","EPOCH":"2026-02-05T04:55:51.158208","MEAN_MOTION":13.19723887,"ECCENTRICITY":0.00019012,"INCLINATION":87.925,"RA_OF_ASC_NODE":331.2362,"ARG_OF_PERICENTER":70.5325,"MEAN_ANOMALY":289.6013,"EPHEMERIS_TYPE":0,"CLASSIFICATION_TYPE":"U","NORAD_CAT_ID":54135,"ELEMENT_SET_NO":999,"REV_AT_EPOCH":15942,"BSTAR":-3.5251652e-5,"MEAN_MOTION_DOT":-1.0e-8,"MEAN_MOTION_DDOT":0},{"OBJECT_NAME":"ONEWEB-0518","OBJECT_ID":"2022-138Z","EPOCH":"2026-02-05T05:23:08.935872","MEAN_MOTION":13.19724968,"ECCENTRICITY":0.00015606,"INCLINATION":87.9246,"RA_OF_ASC_NODE":331.2464,"ARG_OF_PERICENTER":79.1766,"MEAN_ANOMALY":280.9542,"EPHEMERIS_TYPE":0,"CLASSIFICATION_TYPE":"U","NORAD_CAT_ID":54136,"ELEMENT_SET_NO":999,"REV_AT_EPOCH":15942,"BSTAR":0.00018741081,"MEAN_MOTION_DOT":8.8e-7,"MEAN_MOTION_DDOT":0}]
